[Satellite]
VERSION=1.1
NAME=STARLINK-5157
NICKNAME=STARLINK-5157
TLE1=1 53972U 22125J   22296.91667824 -.00121120  00000+0 -86827-3 0  9994
TLE2=2 53972  53.2192   2.7619 0002586  14.0584 262.5648 15.73268778  1309
STATUS=0
